STARLINK-36205          
1 67098U 25298Z   26005.50002314  .00057267  00000+0  13026-2 0  9994
2 67098  70.0002 183.1852 0003086 269.1303 232.6141 15.42685845  4797
STARLINK-36193          
1 67099U 25298AA  26005.50002314  .00079218  00000+0  17964-2 0  9990
2 67099  70.0000 183.4407 0003229 276.6656   1.0971 15.42669936  4734
STARLINK-36215          
1 67100U 25298AB  26005.52449612  .00078619  00000+0  12657-2 0  9999
2 67100  69.9998 183.0245 0003495 273.8882  86.1905 15.52569711  3529
STARLINK-36200          
1 67101U 25298AC  26005.50002314 -.02062481  00000+0 -42337-1 0  9993
2 67101  70.0001 183.1026 0003143 270.2920 304.7933 15.49207346  4799
STARLINK-36255          
1 67102U 25299A   26005.50002314  .00050573  00000+0  12114-2 0  9991
2 67102  42.9997 173.1380 0001653 283.2495 237.9655 15.40662839  4622
STARLINK-36256          
1 67103U 25299B   26005.50002314 -.00778814  00000+0 -19977-1 0  9992
2 67103  43.0002 173.0793 0001675 275.4405 270.4330 15.41192037  4628
STARLINK-36258          
1 67104U 25299C   26005.50002314 -.00062034  00000+0 -10596-2 0  9992
2 67104  42.9997 172.9972 0001946 266.7390 312.5525 15.50586801  4624
STARLINK-36261          
1 67105U 25299D   26005.50002314  .00051765  00000+0  12398-2 0  9992
2 67105  42.9999 173.1078 0001686 281.9122 251.7484 15.40657878  4620
STARLINK-36259          
1 67106U 25299E   26005.50002314 -.00911276  00000+0 -16656-1 0  9997
2 67106  43.0001 172.9844 0001323 257.1506 327.6819 15.50944627  4621
STARLINK-36196          
1 67107U 25299F   26005.50002314 -.00038364  00000+0 -65131-3 0  9990
2 67107  42.9997 172.9879 0001867 270.5403 312.5832 15.50577986  4628
STARLINK-36208          
1 67108U 25299G   26005.50002314 -.00098145  00000+0 -16863-2 0  9991
2 67108  42.9995 172.9792 0001484 267.3319 319.6162 15.50608792  4620
STARLINK-35764          
1 67109U 25299H   26005.50002314 -.02024434  00000+0 -47195-1 0  9995
2 67109  42.9996 173.0069 0001070 269.1981 306.9987 15.44935514  4517
