CCSDS_OMM_VERS = 2.0
CREATION_DATE  = 
ORIGINATOR     = 

OBJECT_NAME    = STARLINK-36205
OBJECT_ID      = 2025-298Z
CENTER_NAME    = EARTH
REF_FRAME      = TEME
TIME_SYSTEM    = UTC
MEAN_ELEMENT_THEORY = SGP/SGP4

EPOCH          = 2026-01-05T12:00:01.999296
MEAN_MOTION    = 15.42685845
ECCENTRICITY   = .0003086
INCLINATION    = 70.0002
RA_OF_ASC_NODE = 183.1852
ARG_OF_PERICENTER = 269.1303
MEAN_ANOMALY   = 232.6141

EPHEMERIS_TYPE = 0
CLASSIFICATION_TYPE = U
NORAD_CAT_ID   = 67098
ELEMENT_SET_NO = 999
REV_AT_EPOCH   = 479
BSTAR          = .13026E-2
MEAN_MOTION_DOT = .57267E-3
MEAN_MOTION_DDOT = 0

CCSDS_OMM_VERS = 2.0
CREATION_DATE  = 
ORIGINATOR     = 

OBJECT_NAME    = STARLINK-36193
OBJECT_ID      = 2025-298AA
CENTER_NAME    = EARTH
REF_FRAME      = TEME
TIME_SYSTEM    = UTC
MEAN_ELEMENT_THEORY = SGP/SGP4

EPOCH          = 2026-01-05T12:00:01.999296
MEAN_MOTION    = 15.42669936
ECCENTRICITY   = .0003229
INCLINATION    = 70.0000
RA_OF_ASC_NODE = 183.4407
ARG_OF_PERICENTER = 276.6656
MEAN_ANOMALY   = 1.0971

EPHEMERIS_TYPE = 0
CLASSIFICATION_TYPE = U
NORAD_CAT_ID   = 67099
ELEMENT_SET_NO = 999
REV_AT_EPOCH   = 473
BSTAR          = .17964E-2
MEAN_MOTION_DOT = .79218E-3
MEAN_MOTION_DDOT = 0

CCSDS_OMM_VERS = 2.0
CREATION_DATE  = 
ORIGINATOR     = 

OBJECT_NAME    = STARLINK-36215
OBJECT_ID      = 2025-298AB
CENTER_NAME    = EARTH
REF_FRAME      = TEME
TIME_SYSTEM    = UTC
MEAN_ELEMENT_THEORY = SGP/SGP4

EPOCH          = 2026-01-05T12:35:16.464768
MEAN_MOTION    = 15.52569711
ECCENTRICITY   = .0003495
INCLINATION    = 69.9998
RA_OF_ASC_NODE = 183.0245
ARG_OF_PERICENTER = 273.8882
MEAN_ANOMALY   = 86.1905

EPHEMERIS_TYPE = 0
CLASSIFICATION_TYPE = U
NORAD_CAT_ID   = 67100
ELEMENT_SET_NO = 999
REV_AT_EPOCH   = 352
BSTAR          = .12657E-2
MEAN_MOTION_DOT = .78619E-3
MEAN_MOTION_DDOT = 0

CCSDS_OMM_VERS = 2.0
CREATION_DATE  = 
ORIGINATOR     = 

OBJECT_NAME    = STARLINK-36200
OBJECT_ID      = 2025-298AC
CENTER_NAME    = EARTH
REF_FRAME      = TEME
TIME_SYSTEM    = UTC
MEAN_ELEMENT_THEORY = SGP/SGP4

EPOCH          = 2026-01-05T12:00:01.999296
MEAN_MOTION    = 15.49207346
ECCENTRICITY   = .0003143
INCLINATION    = 70.0001
RA_OF_ASC_NODE = 183.1026
ARG_OF_PERICENTER = 270.2920
MEAN_ANOMALY   = 304.7933

EPHEMERIS_TYPE = 0
CLASSIFICATION_TYPE = U
NORAD_CAT_ID   = 67101
ELEMENT_SET_NO = 999
REV_AT_EPOCH   = 479
BSTAR          = -.42337E-1
MEAN_MOTION_DOT = -.2062481E-1
MEAN_MOTION_DDOT = 0

CCSDS_OMM_VERS = 2.0
CREATION_DATE  = 
ORIGINATOR     = 

OBJECT_NAME    = STARLINK-36255
OBJECT_ID      = 2025-299A
CENTER_NAME    = EARTH
REF_FRAME      = TEME
TIME_SYSTEM    = UTC
MEAN_ELEMENT_THEORY = SGP/SGP4

EPOCH          = 2026-01-05T12:00:01.999296
MEAN_MOTION    = 15.40662839
ECCENTRICITY   = .0001653
INCLINATION    = 42.9997
RA_OF_ASC_NODE = 173.1380
ARG_OF_PERICENTER = 283.2495
MEAN_ANOMALY   = 237.9655

EPHEMERIS_TYPE = 0
CLASSIFICATION_TYPE = U
NORAD_CAT_ID   = 67102
ELEMENT_SET_NO = 999
REV_AT_EPOCH   = 462
BSTAR          = .12114E-2
MEAN_MOTION_DOT = .50573E-3
MEAN_MOTION_DDOT = 0

CCSDS_OMM_VERS = 2.0
CREATION_DATE  = 
ORIGINATOR     = 

OBJECT_NAME    = STARLINK-36256
OBJECT_ID      = 2025-299B
CENTER_NAME    = EARTH
REF_FRAME      = TEME
TIME_SYSTEM    = UTC
MEAN_ELEMENT_THEORY = SGP/SGP4

EPOCH          = 2026-01-05T12:00:01.999296
MEAN_MOTION    = 15.41192037
ECCENTRICITY   = .0001675
INCLINATION    = 43.0002
RA_OF_ASC_NODE = 173.0793
ARG_OF_PERICENTER = 275.4405
MEAN_ANOMALY   = 270.4330

EPHEMERIS_TYPE = 0
CLASSIFICATION_TYPE = U
NORAD_CAT_ID   = 67103
ELEMENT_SET_NO = 999
REV_AT_EPOCH   = 462
BSTAR          = -.19977E-1
MEAN_MOTION_DOT = -.778814E-2
MEAN_MOTION_DDOT = 0

CCSDS_OMM_VERS = 2.0
CREATION_DATE  = 
ORIGINATOR     = 

OBJECT_NAME    = STARLINK-36258
OBJECT_ID      = 2025-299C
CENTER_NAME    = EARTH
REF_FRAME      = TEME
TIME_SYSTEM    = UTC
MEAN_ELEMENT_THEORY = SGP/SGP4

EPOCH          = 2026-01-05T12:00:01.999296
MEAN_MOTION    = 15.50586801
ECCENTRICITY   = .0001946
INCLINATION    = 42.9997
RA_OF_ASC_NODE = 172.9972
ARG_OF_PERICENTER = 266.7390
MEAN_ANOMALY   = 312.5525

EPHEMERIS_TYPE = 0
CLASSIFICATION_TYPE = U
NORAD_CAT_ID   = 67104
ELEMENT_SET_NO = 999
REV_AT_EPOCH   = 462
BSTAR          = -.10596E-2
MEAN_MOTION_DOT = -.62034E-3
MEAN_MOTION_DDOT = 0

CCSDS_OMM_VERS = 2.0
CREATION_DATE  = 
ORIGINATOR     = 

OBJECT_NAME    = STARLINK-36261
OBJECT_ID      = 2025-299D
CENTER_NAME    = EARTH
REF_FRAME      = TEME
TIME_SYSTEM    = UTC
MEAN_ELEMENT_THEORY = SGP/SGP4

EPOCH          = 2026-01-05T12:00:01.999296
MEAN_MOTION    = 15.40657878
ECCENTRICITY   = .0001686
INCLINATION    = 42.9999
RA_OF_ASC_NODE = 173.1078
ARG_OF_PERICENTER = 281.9122
MEAN_ANOMALY   = 251.7484

EPHEMERIS_TYPE = 0
CLASSIFICATION_TYPE = U
NORAD_CAT_ID   = 67105
ELEMENT_SET_NO = 999
REV_AT_EPOCH   = 462
BSTAR          = .12398E-2
MEAN_MOTION_DOT = .51765E-3
MEAN_MOTION_DDOT = 0

CCSDS_OMM_VERS = 2.0
CREATION_DATE  = 
ORIGINATOR     = 

OBJECT_NAME    = STARLINK-36259
OBJECT_ID      = 2025-299E
CENTER_NAME    = EARTH
REF_FRAME      = TEME
TIME_SYSTEM    = UTC
MEAN_ELEMENT_THEORY = SGP/SGP4

EPOCH          = 2026-01-05T12:00:01.999296
MEAN_MOTION    = 15.50944627
ECCENTRICITY   = .0001323
INCLINATION    = 43.0001
RA_OF_ASC_NODE = 172.9844
ARG_OF_PERICENTER = 257.1506
MEAN_ANOMALY   = 327.6819

EPHEMERIS_TYPE = 0
CLASSIFICATION_TYPE = U
NORAD_CAT_ID   = 67106
ELEMENT_SET_NO = 999
REV_AT_EPOCH   = 462
BSTAR          = -.16656E-1
MEAN_MOTION_DOT = -.911276E-2
MEAN_MOTION_DDOT = 0

CCSDS_OMM_VERS = 2.0
CREATION_DATE  = 
ORIGINATOR     = 

OBJECT_NAME    = STARLINK-36196
OBJECT_ID      = 2025-299F
CENTER_NAME    = EARTH
REF_FRAME      = TEME
TIME_SYSTEM    = UTC
MEAN_ELEMENT_THEORY = SGP/SGP4

EPOCH          = 2026-01-05T12:00:01.999296
MEAN_MOTION    = 15.50577986
ECCENTRICITY   = .0001867
INCLINATION    = 42.9997
RA_OF_ASC_NODE = 172.9879
ARG_OF_PERICENTER = 270.5403
MEAN_ANOMALY   = 312.5832

EPHEMERIS_TYPE = 0
CLASSIFICATION_TYPE = U
NORAD_CAT_ID   = 67107
ELEMENT_SET_NO = 999
REV_AT_EPOCH   = 462
BSTAR          = -.65131E-3
MEAN_MOTION_DOT = -.38364E-3
MEAN_MOTION_DDOT = 0

CCSDS_OMM_VERS = 2.0
CREATION_DATE  = 
ORIGINATOR     = 

OBJECT_NAME    = STARLINK-36208
OBJECT_ID      = 2025-299G
CENTER_NAME    = EARTH
REF_FRAME      = TEME
TIME_SYSTEM    = UTC
MEAN_ELEMENT_THEORY = SGP/SGP4

EPOCH          = 2026-01-05T12:00:01.999296
MEAN_MOTION    = 15.50608792
ECCENTRICITY   = .0001484
INCLINATION    = 42.9995
RA_OF_ASC_NODE = 172.9792
ARG_OF_PERICENTER = 267.3319
MEAN_ANOMALY   = 319.6162

EPHEMERIS_TYPE = 0
CLASSIFICATION_TYPE = U
NORAD_CAT_ID   = 67108
ELEMENT_SET_NO = 999
REV_AT_EPOCH   = 462
BSTAR          = -.16863E-2
MEAN_MOTION_DOT = -.98145E-3
MEAN_MOTION_DDOT = 0

CCSDS_OMM_VERS = 2.0
CREATION_DATE  = 
ORIGINATOR     = 

OBJECT_NAME    = STARLINK-35764
OBJECT_ID      = 2025-299H
CENTER_NAME    = EARTH
REF_FRAME      = TEME
TIME_SYSTEM    = UTC
MEAN_ELEMENT_THEORY = SGP/SGP4

EPOCH          = 2026-01-05T12:00:01.999296
MEAN_MOTION    = 15.44935514
ECCENTRICITY   = .000107
INCLINATION    = 42.9996
RA_OF_ASC_NODE = 173.0069
ARG_OF_PERICENTER = 269.1981
MEAN_ANOMALY   = 306.9987

EPHEMERIS_TYPE = 0
CLASSIFICATION_TYPE = U
NORAD_CAT_ID   = 67109
ELEMENT_SET_NO = 999
REV_AT_EPOCH   = 451
BSTAR          = -.47195E-1
MEAN_MOTION_DOT = -.2024434E-1
MEAN_MOTION_DDOT = 0

